{"type":"FeatureCollection","features":[{"type":"Feature","properties":{"nombre":"CABA"},"geometry":{"type":"Polygon","coordinates":[[[-58.3431,-34.6302],[-58.5008,-34.5495],[-58.4238,-34.6622],[-58.3741,-34.6572],[-58.3431,-34.6302]]]}},{"type":"Feature","properties":{"nombre":"Neuquén"},"geometry":{"type":"Polygon","coordinates":[[[-70.395,-36.1943],[-70.3974,-36.1195],[-70.5289,-36.144],[-70.7062,-36.2726],[-70.6793,-36.39],[-70.9581,-36.5036],[-71.0572,-36.6187],[-71.1319,-36.8147],[-71.0956,-36.9253],[-71.1673,-36.997],[-71.1153,-37.2078],[-71.1973,-37.3839],[-71.1182,-37.4689],[-71.2063,-37.6477],[-71.0626,-37.9702],[-70.984,-38.4307],[-70.8431,-38.5375],[-70.9267,-38.7632],[-71.0938,-38.7549],[-71.4336,-38.9289],[-71.3741,-39.2832],[-71.5024,-39.6378],[-71.6987,-39.5874],[-71.6915,-39.8414],[-71.5927,-39.9114],[-71.6995,-40.1167],[-71.8245,-40.2317],[-71.6568,-40.3638],[-71.825,-40.4219],[-71.844,-40.6279],[-71.965,-40.7276],[-71.869,-40.893],[-71.8611,-41.031],[-71.4564,-41.0417],[-71.2405,-41.0951],[-71.032,-40.9331],[-71.1208,-40.7582],[-70.8554,-40.5934],[-70.6539,-40.5913],[-70.1706,-40.483],[-70.0627,-40.3746],[-70.0588,-40.249],[-69.9503,-40.179],[-70.0054,-40.0474],[-69.8659,-39.9109],[-69.4219,-39.7681],[-69.1128,-39.5147],[-68.9999,-39.5152],[-68.824,-39.3749],[-68.8024,-39.2849],[-68.6632,-39.215],[-68.5617,-39.0765],[-68.2076,-38.9712],[-68.024,-38.9764],[-67.9981,-38.9958],[-68.1631,-38.7379],[-68.2563,-38.6795],[-68.2543,-37.5719],[-68.355,-37.5472],[-68.5049,-37.4541],[-68.6966,-37.4423],[-68.7661,-37.3665],[-69.026,-37.3648],[-69.0641,-37.2236],[-69.2683,-37.1445],[-69.5296,-37.1744],[-69.7556,-37.0686],[-69.779,-36.9168],[-69.9219,-36.7947],[-70.1827,-36.4911],[-70.2254,-36.3271],[-70.3706,-36.2238],[-70.395,-36.1943]]]}},{"type":"Feature","properties":{"nombre":"San Luis"},"geometry":{"type":"Polygon","coordinates":[[[-67.0059,-31.8554],[-67.1367,-31.8338],[-67.3792,-31.8681],[-67.3652,-31.9759],[-67.3704,-32.2463],[-67.2638,-32.3819],[-67.3101,-32.4247],[-67.225,-32.6822],[-67.1663,-32.7587],[-67.2323,-32.885],[-67.1793,-33.0035],[-67.1526,-33.4122],[-67.096,-33.5035],[-66.8733,-33.8329],[-66.6759,-33.9416],[-66.6632,-33.9863],[-66.8119,-34.3451],[-66.6497,-34.7583],[-66.5612,-34.8327],[-66.478,-35.1419],[-66.5252,-35.5402],[-66.5894,-35.7944],[-66.6222,-35.8484],[-66.6181,-35.903],[-66.6289,-35.9286],[-66.6187,-35.9653],[-66.6378,-36.0006],[-65.1078,-35.9991],[-65.1092,-33.9506],[-65.143,-33.1948],[-65.0708,-33.1383],[-64.9631,-32.8633],[-64.9446,-32.7673],[-64.8832,-32.5726],[-64.9192,-32.4838],[-64.9298,-32.4233],[-64.9772,-32.3214],[-65.212,-32.3267],[-65.2458,-32.089],[-65.628,-31.8986],[-65.979,-31.8892],[-66.3494,-31.9984],[-66.5688,-31.9498],[-66.6045,-31.9234],[-66.8857,-31.8977],[-67.0059,-31.8554]]]}},{"type":"Feature","properties":{"nombre":"Santa Fe"},"geometry":{"type":"Polygon","coordinates":[[[-58.884,-28],[-61.0464,-27.998],[-61.712,-27.9986],[-62.1307,-30.4804],[-61.8422,-30.7443],[-62.1235,-31.6054],[-62.2417,-31.6997],[-62.2235,-31.8839],[-62.1678,-31.986],[-62.1968,-32.1148],[-62.0379,-32.2629],[-61.7957,-32.774],[-61.7877,-33.0062],[-61.9232,-33.1196],[-62.8839,-34.3865],[-61.7198,-34.3856],[-60.934,-33.6547],[-60.8182,-33.5403],[-60.5569,-33.6466],[-60.4574,-33.5824],[-60.2727,-33.2639],[-60.2978,-33.2423],[-60.3921,-33.189],[-60.4934,-33.1314],[-60.6055,-32.9998],[-60.6202,-32.9479],[-60.716,-32.7736],[-60.7762,-32.507],[-60.7238,-32.4561],[-60.6726,-32.2326],[-60.7004,-32.1498],[-60.656,-32.0671],[-60.6844,-32.0121],[-60.7207,-31.9852],[-60.7218,-31.9662],[-60.6572,-31.9113],[-60.6758,-31.8117],[-60.6388,-31.742],[-60.5841,-31.7085],[-60.4676,-31.6983],[-60.1435,-31.4436],[-60.1056,-31.2899],[-60.0027,-31.2386],[-59.9634,-31.1199],[-59.8182,-30.9425],[-59.6994,-30.7691],[-59.6784,-30.6469],[-59.6503,-30.501],[-59.7034,-30.4426],[-59.6935,-30.3131],[-59.5664,-30.0081],[-59.6597,-29.8432],[-59.6175,-29.7758],[-59.58,-29.4598],[-59.5006,-29.2435],[-59.4078,-29.2214],[-59.2575,-29.0896],[-59.0786,-28.6675],[-59.1079,-28.2228],[-59.0624,-28.1281],[-58.9451,-28.1338],[-58.8808,-28.0668],[-58.884,-28]]]}},{"type":"Feature","properties":{"nombre":"La Rioja"},"geometry":{"type":"Polygon","coordinates":[[[-68.4403,-27.8737],[-68.5391,-27.7854],[-68.799,-27.7557],[-69.095,-27.7966],[-69.1733,-27.9714],[-69.3074,-28.1289],[-69.4563,-28.1836],[-69.6057,-28.419],[-69.5552,-28.4058],[-69.4696,-28.415],[-69.3162,-28.4116],[-69.2026,-28.596],[-69.162,-28.7611],[-68.9087,-28.8593],[-68.9561,-28.9495],[-68.9119,-29.1286],[-69.0012,-29.1866],[-68.9746,-29.3641],[-69.0337,-29.533],[-69.016,-29.65],[-68.7179,-29.6245],[-68.4413,-29.6505],[-68.199,-29.7811],[-68.1588,-29.8854],[-67.9901,-29.9881],[-67.5909,-30.2981],[-67.578,-30.4042],[-67.4101,-30.6275],[-67.2828,-30.6953],[-67.1288,-30.8956],[-67.0668,-31.0832],[-67.1012,-31.383],[-66.952,-31.6333],[-66.8682,-31.6333],[-66.8043,-31.8088],[-66.7227,-31.8838],[-66.6618,-31.9205],[-66.6045,-31.9234],[-66.5688,-31.9498],[-66.3494,-31.9984],[-65.979,-31.8892],[-65.7704,-31.889],[-65.7715,-31.0442],[-65.5252,-30.4908],[-65.423,-30.1196],[-65.8174,-29.1789],[-66.0997,-28.9444],[-66.4002,-28.8607],[-66.3515,-28.7209],[-66.4962,-28.6223],[-66.5708,-28.2886],[-67.0162,-28.2543],[-67.1554,-28.3844],[-67.3753,-28.3845],[-67.6915,-28.3118],[-67.8132,-28.3717],[-67.8416,-28.3165],[-67.9144,-28.1137],[-68.0224,-28.1247],[-68.2954,-28.0686],[-68.3966,-28.0042],[-68.4403,-27.8737]]]}},{"type":"Feature","properties":{"nombre":"Catamarca"},"geometry":{"type":"Polygon","coordinates":[[[-67.8646,-25.2384],[-68.5054,-25.1685],[-68.5093,-25.2317],[-68.5485,-25.2622],[-68.5239,-25.3789],[-68.5447,-25.6338],[-68.4773,-25.7016],[-68.3814,-26.1778],[-68.5584,-26.2874],[-68.5881,-26.4924],[-68.2624,-26.9188],[-68.3466,-27.0335],[-68.4943,-27.1367],[-68.6705,-27.099],[-68.8429,-27.1601],[-68.9425,-27.5259],[-69.0388,-27.5951],[-69.095,-27.7966],[-68.799,-27.7557],[-68.5391,-27.7854],[-68.4403,-27.8737],[-68.3966,-28.0042],[-68.2954,-28.0686],[-68.0224,-28.1247],[-67.9144,-28.1137],[-67.8416,-28.3165],[-67.8132,-28.3717],[-67.6915,-28.3118],[-67.3753,-28.3845],[-67.1554,-28.3844],[-67.0162,-28.2543],[-66.5708,-28.2886],[-66.4962,-28.6223],[-66.3515,-28.7209],[-66.4002,-28.8607],[-66.0997,-28.9444],[-65.8174,-29.1789],[-65.423,-30.1196],[-65.1583,-30.0473],[-64.9379,-29.8475],[-64.9641,-29.5961],[-64.8246,-29.5743],[-64.786,-29.4055],[-64.8376,-29.2286],[-64.9011,-28.8413],[-65.0166,-28.7378],[-65.1268,-28.7162],[-65.1706,-28.6184],[-65.1846,-28.6006],[-65.0971,-28.4709],[-65.1124,-28.1867],[-65.1708,-27.9465],[-65.3658,-27.8458],[-65.5001,-27.9241],[-65.5685,-28.0132],[-65.6126,-27.9913],[-65.6663,-27.9732],[-65.7532,-27.77],[-65.7946,-27.8071],[-65.9154,-27.6691],[-65.9306,-27.6453],[-65.9757,-27.4935],[-65.972,-27.3329],[-66.1396,-27.2618],[-65.9171,-27.0149],[-65.9005,-26.8638],[-65.8302,-26.7442],[-66.1639,-26.5018],[-66.1548,-26.4437],[-66.1191,-26.377],[-66.0941,-26.2486],[-66.0992,-26.2166],[-66.1705,-26.134],[-66.2162,-26.1395],[-66.293,-26.2293],[-66.382,-26.4168],[-66.5399,-26.3532],[-66.5842,-26.1598],[-66.6593,-26.1072],[-66.7573,-26.0501],[-66.7804,-26.0469],[-66.8435,-25.9773],[-66.8476,-25.7963],[-66.8736,-25.7662],[-66.8017,-25.6988],[-66.6486,-25.712],[-66.5639,-25.6218],[-66.5185,-25.4403],[-66.5582,-25.3007],[-66.8793,-25.2417],[-67.8646,-25.2384]]]}},{"type":"Feature","properties":{"nombre":"Tucumán"},"geometry":{"type":"Polygon","coordinates":[[[-65.2979,-26.0817],[-65.4246,-26.109],[-65.6885,-26.1173],[-65.7228,-26.2798],[-65.723,-26.3127],[-65.7115,-26.3287],[-65.7178,-26.3525],[-66.0401,-26.2509],[-66.0998,-26.2205],[-66.0941,-26.2486],[-66.1191,-26.377],[-66.1548,-26.4437],[-66.1639,-26.5018],[-65.8302,-26.7442],[-65.9005,-26.8638],[-65.9171,-27.0149],[-66.1396,-27.2618],[-65.972,-27.3329],[-65.9712,-27.5244],[-65.93,-27.6465],[-65.9154,-27.6691],[-65.7946,-27.8071],[-65.7532,-27.77],[-65.6663,-27.9732],[-65.6126,-27.9913],[-65.3709,-27.8461],[-65.1708,-27.9465],[-65.1781,-27.9164],[-65.039,-27.8793],[-64.986,-27.7416],[-65.0271,-27.5871],[-64.9744,-27.3509],[-64.8543,-27.3183],[-64.7074,-26.82],[-64.6179,-26.8027],[-64.587,-26.6579],[-64.4986,-26.6736],[-64.5348,-26.4101],[-64.4818,-26.3076],[-64.5642,-26.2269],[-64.5796,-26.2182],[-64.7322,-26.2416],[-64.9512,-26.3068],[-65.0407,-26.2299],[-65.2753,-26.1712],[-65.2979,-26.0817]]]}},{"type":"Feature","properties":{"nombre":"Chaco"},"geometry":{"type":"Polygon","coordinates":[[[-58.4438,-26.8321],[-58.5722,-26.6875],[-58.7444,-26.6026],[-58.9857,-26.38],[-59.1926,-26.3297],[-59.3575,-26.338],[-59.4289,-26.1988],[-59.5848,-26.1218],[-59.7535,-25.9207],[-60.2264,-25.586],[-60.2245,-25.4851],[-60.3543,-25.3227],[-60.541,-25.1674],[-60.6306,-25.1776],[-60.9535,-24.9726],[-61.144,-24.805],[-61.2557,-24.6217],[-61.454,-24.6122],[-61.5828,-24.4416],[-61.7606,-24.3285],[-62.1827,-24.155],[-62.3422,-24.1102],[-62.3424,-24.3921],[-63.4224,-25.6492],[-61.7118,-25.6547],[-61.712,-27.9986],[-58.884,-28],[-58.8808,-28.0668],[-58.8577,-28.0116],[-58.8293,-27.9619],[-58.8097,-27.7834],[-58.871,-27.5713],[-58.8814,-27.4979],[-58.781,-27.3818],[-58.6688,-27.3591],[-58.6165,-27.3186],[-58.6522,-27.1306],[-58.3987,-26.8649],[-58.4438,-26.8321]]]}},{"type":"Feature","properties":{"nombre":"Formosa"},"geometry":{"type":"Polygon","coordinates":[[[-58.3987,-26.8649],[-58.246,-26.7503],[-58.2602,-26.6451],[-58.1809,-26.4574],[-58.1186,-26.1544],[-57.9195,-26.0323],[-57.8368,-25.9156],[-57.7428,-25.6519],[-57.6168,-25.6161],[-57.5606,-25.4527],[-57.7028,-25.3222],[-57.7535,-25.1765],[-57.8611,-25.0816],[-57.9995,-25.0742],[-58.2554,-24.9319],[-58.3337,-25],[-58.43,-24.8933],[-58.5736,-24.821],[-58.6735,-24.8315],[-58.973,-24.6621],[-59.1278,-24.618],[-59.3505,-24.483],[-59.4759,-24.3311],[-60.039,-24.0117],[-60.2951,-24.0414],[-60.6128,-23.9038],[-60.8473,-23.8715],[-60.9868,-23.8129],[-61.0895,-23.6139],[-61.3521,-23.45],[-61.4941,-23.4244],[-61.573,-23.304],[-61.7349,-23.2358],[-61.7544,-23.1711],[-62.0104,-22.9757],[-62.3423,-22.4609],[-62.3422,-24.1102],[-62.1827,-24.155],[-61.7606,-24.3285],[-61.5828,-24.4416],[-61.454,-24.6122],[-61.2557,-24.6217],[-61.144,-24.805],[-60.9535,-24.9726],[-60.6306,-25.1776],[-60.541,-25.1674],[-60.3543,-25.3227],[-60.2245,-25.4851],[-60.2264,-25.586],[-59.7535,-25.9207],[-59.5848,-26.1218],[-59.4289,-26.1988],[-59.3575,-26.338],[-59.1926,-26.3297],[-58.9857,-26.38],[-58.7444,-26.6026],[-58.5722,-26.6875],[-58.4438,-26.8321],[-58.3987,-26.8649]]]}},{"type":"Feature","properties":{"nombre":"Santa Cruz"},"geometry":{"type":"Polygon","coordinates":[[[-71.6449,-46],[-71.7776,-46.1988],[-71.6434,-46.6848],[-71.9554,-46.8144],[-71.8647,-47.2306],[-72.1281,-47.3281],[-72.4505,-47.7053],[-72.5274,-47.9378],[-72.426,-47.967],[-72.2267,-48.322],[-72.5857,-48.4873],[-72.5322,-48.7976],[-72.7481,-48.9103],[-72.9197,-48.9357],[-73.1437,-49.271],[-73.4707,-49.2011],[-73.4262,-49.3919],[-73.5396,-49.4982],[-73.4388,-49.7578],[-73.5526,-49.9239],[-73.4829,-50.0541],[-73.5654,-50.2707],[-73.4326,-50.4831],[-73.1727,-50.6767],[-73.2035,-50.821],[-72.9547,-50.741],[-72.7297,-50.615],[-72.4904,-50.6003],[-72.2862,-50.6596],[-72.3455,-50.7598],[-72.2481,-50.875],[-72.2657,-51.0352],[-72.4091,-51.1075],[-72.2692,-51.2833],[-72.3447,-51.5207],[-72.2875,-51.6691],[-71.951,-51.8716],[-71.9215,-52],[-69.9955,-52.0007],[-69.486,-52.1514],[-69.19,-52.1501],[-68.838,-52.2777],[-68.3525,-52.3226],[-68.7084,-51.9812],[-68.9613,-51.6239],[-68.9464,-51.5543],[-69.1661,-50.9809],[-69.141,-50.7272],[-69.0793,-50.5653],[-68.88,-50.3356],[-68.4072,-50.1862],[-68.3436,-50.1208],[-68.0395,-50.0682],[-67.8364,-49.9446],[-67.7323,-49.7827],[-67.6666,-49.4048],[-67.7976,-49.328],[-67.6676,-49.2459],[-67.5513,-49.0144],[-67.2199,-48.838],[-67.1297,-48.6851],[-66.8753,-48.5934],[-66.8311,-48.523],[-66.448,-48.3523],[-66.1211,-48.1236],[-65.9044,-48.0804],[-65.8468,-47.9391],[-65.88,-47.7742],[-65.7398,-47.5102],[-65.7178,-47.3322],[-65.8674,-47.0921],[-66.1977,-47.0874],[-66.7919,-46.9991],[-67.1216,-46.7074],[-67.3553,-46.6188],[-67.5674,-46.3491],[-67.6272,-46.0833],[-67.5957,-45.9999],[-71.6449,-46]]]}},{"type":"Feature","properties":{"nombre":"Chubut"},"geometry":{"type":"Polygon","coordinates":[[[-65.0693,-42],[-67.7506,-42],[-71.7739,-42],[-71.7817,-42.1481],[-72.1883,-42.161],[-72.1319,-42.3843],[-72.0126,-42.4949],[-72.1185,-42.603],[-72.1425,-42.8999],[-71.9433,-43.0924],[-71.7605,-43.1646],[-71.7308,-43.2822],[-71.9342,-43.4491],[-71.8486,-43.4829],[-71.6604,-43.7024],[-71.7627,-43.8406],[-71.6488,-43.9459],[-71.7594,-44.0996],[-71.839,-44.35],[-71.7673,-44.4104],[-71.3862,-44.3853],[-71.1297,-44.4718],[-71.1019,-44.5907],[-71.2355,-44.6409],[-71.2918,-44.8139],[-71.4742,-44.7371],[-71.6663,-44.7872],[-72.0055,-44.7843],[-72.0372,-44.9028],[-71.925,-44.9442],[-71.5597,-44.9774],[-71.4875,-45.1441],[-71.3201,-45.2921],[-71.5295,-45.3927],[-71.4689,-45.4936],[-71.6821,-45.5151],[-71.7955,-45.6649],[-71.6525,-45.8904],[-71.6449,-46],[-67.5957,-45.9999],[-67.3979,-45.7875],[-67.3451,-45.623],[-67.064,-45.3462],[-66.8413,-45.23],[-66.662,-45.2114],[-66.5997,-45.1394],[-66.3592,-45.0397],[-66.1189,-44.9852],[-65.9344,-45.0494],[-65.6978,-45.0459],[-65.5358,-44.9208],[-65.7288,-44.8484],[-65.6384,-44.6659],[-65.3008,-44.5102],[-65.2167,-44.3667],[-65.3118,-44.2043],[-65.2204,-44.1368],[-65.3546,-43.7645],[-65.3329,-43.6575],[-65.0526,-43.4026],[-64.9763,-43.255],[-64.7576,-43.1506],[-64.459,-43.0645],[-64.3968,-42.9596],[-64.6291,-42.9194],[-64.8774,-42.8346],[-65.0361,-42.7306],[-64.9798,-42.6491],[-64.6292,-42.4963],[-64.3437,-42.5315],[-64.2111,-42.6254],[-64.2536,-42.7652],[-64.1105,-42.8789],[-63.63,-42.7646],[-63.5828,-42.6073],[-63.603,-42.3154],[-63.7703,-42.0738],[-64.0751,-42.1783],[-64.0568,-42.3827],[-64.1242,-42.4297],[-64.6101,-42.4264],[-64.4642,-42.2395],[-64.8803,-42.1808],[-65.0693,-42]]]}},{"type":"Feature","properties":{"nombre":"Mendoza"},"geometry":{"type":"Polygon","coordinates":[[[-70.1262,-32.5742],[-70.1476,-32.7284],[-69.9894,-32.899],[-70.0809,-33.0283],[-70.0644,-33.2051],[-69.7691,-33.3432],[-69.8653,-33.583],[-69.9047,-33.7713],[-69.8555,-33.8921],[-69.8733,-34.1311],[-69.8072,-34.2484],[-70.0308,-34.2877],[-70.0123,-34.4119],[-70.217,-34.6107],[-70.2482,-34.7989],[-70.3763,-35.0509],[-70.375,-35.1702],[-70.5837,-35.2672],[-70.452,-35.3916],[-70.312,-35.8132],[-70.4205,-35.8751],[-70.3974,-36.1195],[-70.395,-36.1943],[-70.3706,-36.2238],[-70.2254,-36.3271],[-70.1827,-36.4911],[-69.9219,-36.7947],[-69.779,-36.9168],[-69.7556,-37.0686],[-69.5296,-37.1744],[-69.2683,-37.1445],[-69.0641,-37.2236],[-69.026,-37.3648],[-68.7661,-37.3665],[-68.6966,-37.4423],[-68.5049,-37.4541],[-68.355,-37.5472],[-68.258,-37.5745],[-68.2502,-36.1725],[-68.2964,-35.9976],[-66.6378,-36.0006],[-66.6197,-35.971],[-66.6229,-35.8517],[-66.5894,-35.7944],[-66.5252,-35.5402],[-66.478,-35.1419],[-66.5612,-34.8327],[-66.6497,-34.7583],[-66.8119,-34.3451],[-66.6632,-33.9863],[-66.6759,-33.9416],[-66.8733,-33.8329],[-67.096,-33.5035],[-67.1526,-33.4122],[-67.1793,-33.0035],[-67.2323,-32.885],[-67.1663,-32.7587],[-67.225,-32.6822],[-67.3101,-32.4247],[-67.4729,-32.3067],[-67.5969,-32.2463],[-67.8383,-32.2151],[-67.8729,-32.188],[-68.0529,-32.071],[-68.0733,-32.099],[-68.4612,-32.1392],[-68.4612,-32.2381],[-68.6657,-32.3371],[-68.9176,-32.3379],[-68.9176,-32.1146],[-69.1164,-32.0205],[-69.2445,-32.0161],[-69.3142,-32.0911],[-69.4548,-32.0747],[-69.5962,-32.1409],[-69.6303,-32.2621],[-69.7215,-32.3142],[-69.6892,-32.4302],[-69.7589,-32.5124],[-69.7788,-32.5424],[-69.8274,-32.5627],[-70.0036,-32.5291],[-70.0896,-32.6224],[-70.1262,-32.5742]]]}},{"type":"Feature","properties":{"nombre":"Entre Ríos"},"geometry":{"type":"Polygon","coordinates":[[[-58.4966,-30.2077],[-58.63,-30.1769],[-58.8789,-30.2467],[-59.0643,-30.2308],[-59.2297,-30.3642],[-59.4196,-30.3157],[-59.5577,-30.3326],[-59.5878,-30.4348],[-59.6368,-30.3578],[-59.6717,-30.3387],[-59.7034,-30.4426],[-59.6503,-30.501],[-59.6784,-30.6469],[-59.6994,-30.7691],[-59.8182,-30.9425],[-59.9634,-31.1199],[-60.0134,-31.2507],[-60.1056,-31.2899],[-60.1435,-31.4436],[-60.4676,-31.6983],[-60.5681,-31.7049],[-60.6276,-31.7332],[-60.6429,-31.7512],[-60.6409,-31.7918],[-60.6758,-31.8117],[-60.6529,-31.8971],[-60.6719,-31.9302],[-60.7197,-31.9588],[-60.7235,-31.9776],[-60.7004,-32.1498],[-60.6726,-32.2326],[-60.7238,-32.4561],[-60.7762,-32.507],[-60.716,-32.7736],[-60.6202,-32.9479],[-60.6012,-33.006],[-60.5132,-33.1129],[-60.4242,-33.174],[-60.3921,-33.189],[-60.2978,-33.2423],[-60.2007,-33.2922],[-60.0448,-33.4475],[-59.8947,-33.5103],[-59.8095,-33.5517],[-59.6174,-33.6937],[-59.4678,-33.7043],[-59.2354,-33.74],[-59.2423,-33.8075],[-59.0555,-33.8324],[-58.7637,-33.9453],[-58.655,-34.0353],[-58.4632,-34.0019],[-58.345,-34.0384],[-58.4236,-33.9163],[-58.445,-33.5411],[-58.4317,-33.3633],[-58.3618,-33.121],[-58.0989,-33.0204],[-58.1606,-32.5708],[-58.2046,-32.462],[-58.0999,-32.26],[-58.1833,-32.1592],[-58.1383,-32.0018],[-58.2068,-31.8716],[-58.0381,-31.7591],[-57.9806,-31.581],[-58.0824,-31.4578],[-57.9793,-31.3884],[-57.8617,-31.0435],[-57.7974,-30.7827],[-57.8437,-30.7217],[-57.9802,-30.6294],[-58.037,-30.5679],[-58.0726,-30.4252],[-58.2074,-30.2881],[-58.4515,-30.2249],[-58.4966,-30.2077]]]}},{"type":"Feature","properties":{"nombre":"San Juan"},"geometry":{"type":"Polygon","coordinates":[[[-69.6057,-28.419],[-69.7314,-28.684],[-69.6929,-28.7709],[-69.7657,-28.8988],[-69.7881,-29.1327],[-69.8761,-29.1389],[-69.998,-29.2858],[-69.8885,-29.9046],[-69.9649,-30.0854],[-69.809,-30.1534],[-69.9187,-30.3501],[-70.1948,-30.4916],[-70.3228,-30.928],[-70.2978,-31.0202],[-70.4014,-31.1671],[-70.4979,-31.1228],[-70.5472,-31.3149],[-70.5674,-31.6001],[-70.4673,-31.7007],[-70.4604,-31.8439],[-70.2801,-31.8841],[-70.2093,-31.9604],[-70.3287,-32.0493],[-70.3231,-32.267],[-70.2224,-32.325],[-70.1262,-32.5742],[-70.0896,-32.6224],[-70.0036,-32.5291],[-69.8274,-32.5627],[-69.7788,-32.5424],[-69.7589,-32.5124],[-69.6892,-32.4302],[-69.7215,-32.3142],[-69.6303,-32.2621],[-69.5962,-32.1409],[-69.4548,-32.0747],[-69.3142,-32.0911],[-69.2445,-32.0161],[-69.1164,-32.0205],[-68.9176,-32.1146],[-68.9176,-32.3379],[-68.6657,-32.3371],[-68.4612,-32.2381],[-68.4612,-32.1392],[-68.0733,-32.099],[-68.0529,-32.071],[-67.8729,-32.188],[-67.8383,-32.2151],[-67.5969,-32.2463],[-67.4729,-32.3067],[-67.2638,-32.3819],[-67.3704,-32.2463],[-67.3652,-31.9759],[-67.3792,-31.8681],[-67.1367,-31.8338],[-67.0059,-31.8554],[-66.8857,-31.8977],[-66.6618,-31.9205],[-66.735,-31.8747],[-66.8024,-31.8118],[-66.8682,-31.6333],[-66.952,-31.6333],[-67.1012,-31.383],[-67.0668,-31.0832],[-67.1288,-30.8956],[-67.2828,-30.6953],[-67.4101,-30.6275],[-67.578,-30.4042],[-67.5909,-30.2981],[-67.9901,-29.9881],[-68.1588,-29.8854],[-68.199,-29.7811],[-68.4413,-29.6505],[-68.7179,-29.6245],[-69.016,-29.65],[-69.0337,-29.533],[-68.9746,-29.3641],[-69.0012,-29.1866],[-68.9119,-29.1286],[-68.9561,-28.9495],[-68.9087,-28.8593],[-69.162,-28.7611],[-69.2026,-28.596],[-69.3162,-28.4116],[-69.4696,-28.415],[-69.5552,-28.4058],[-69.6057,-28.419]]]}},{"type":"Feature","properties":{"nombre":"Jujuy"},"geometry":{"type":"Polygon","coordinates":[[[-65.1866,-22.0853],[-65.7483,-22.1091],[-65.9248,-21.9335],[-66.0482,-21.919],[-66.0763,-21.835],[-66.2077,-21.7884],[-66.3478,-22.128],[-66.7393,-22.2385],[-66.7825,-22.4381],[-67.0272,-22.5409],[-67.0141,-22.6548],[-67.1805,-22.8141],[-66.9905,-23],[-67.213,-23.6949],[-66.9928,-23.8899],[-66.8374,-24.0707],[-66.5436,-24.2076],[-66.3623,-24.0874],[-66.3676,-23.6946],[-66.2836,-23.5747],[-66.1829,-23.4384],[-66.1843,-23.4146],[-66.0112,-23.5088],[-66.0219,-23.8617],[-65.9926,-23.98],[-65.8045,-24.033],[-65.7209,-24.1093],[-65.6563,-24.3774],[-65.3173,-24.5023],[-65.1941,-24.4599],[-65.0797,-24.5622],[-64.9274,-24.5998],[-64.8427,-24.4671],[-64.6475,-24.6134],[-64.4217,-24.4022],[-64.3183,-24.4272],[-64.2888,-24.4071],[-64.252,-24.3642],[-64.2524,-24.3444],[-64.2231,-24.3294],[-64.1618,-24.2211],[-64.1571,-23.518],[-64.3543,-23.518],[-64.3932,-23.6101],[-64.4959,-23.5671],[-64.6825,-23.4524],[-64.845,-23.4972],[-64.8684,-23.4474],[-64.9102,-23.3108],[-65.0386,-23.2269],[-65.045,-23.1557],[-65.0717,-23.1377],[-65.1338,-23.0019],[-65.2182,-22.959],[-65.2742,-22.7901],[-65.2717,-22.6482],[-65.3507,-22.6023],[-65.3471,-22.5201],[-65.3057,-22.4666],[-65.2627,-22.3383],[-65.2403,-22.2792],[-65.1866,-22.0853]]]}},{"type":"Feature","properties":{"nombre":"Santiago del Estero"},"geometry":{"type":"Polygon","coordinates":[[[-61.7118,-25.6547],[-62.3791,-25.6519],[-63.4224,-25.6492],[-63.4755,-25.7099],[-64.0078,-25.6738],[-64.0255,-25.7539],[-64.268,-25.7006],[-64.413,-26.0405],[-64.4167,-26.1143],[-64.4818,-26.3076],[-64.5348,-26.4101],[-64.4986,-26.6736],[-64.587,-26.6579],[-64.6179,-26.8027],[-64.7074,-26.82],[-64.8543,-27.3183],[-64.9744,-27.3509],[-65.0271,-27.5871],[-64.986,-27.7416],[-65.039,-27.8793],[-65.1781,-27.9164],[-65.1124,-28.1867],[-65.0971,-28.4709],[-65.1846,-28.6006],[-65.1706,-28.6184],[-65.1268,-28.7162],[-65.0166,-28.7378],[-64.9011,-28.8413],[-64.8376,-29.2286],[-64.786,-29.4055],[-64.8246,-29.5743],[-64.2755,-29.4987],[-63.9808,-29.551],[-63.9578,-29.6235],[-63.8739,-29.6308],[-63.8419,-29.5808],[-63.7838,-29.5842],[-63.7484,-29.6533],[-63.4654,-29.6645],[-63.4596,-29.7569],[-62.8063,-29.8338],[-62.7913,-29.9606],[-62.5565,-30.0628],[-62.5936,-30.2596],[-62.5201,-30.3419],[-62.1738,-30.3453],[-62.1307,-30.4804],[-61.712,-27.9986],[-61.7118,-25.6547]]]}},{"type":"Feature","properties":{"nombre":"Río Negro"},"geometry":{"type":"Polygon","coordinates":[[[-68.1525,-37.5803],[-68.2543,-37.5719],[-68.2563,-38.6795],[-68.1631,-38.7379],[-67.9981,-38.9958],[-68.024,-38.9764],[-68.2076,-38.9712],[-68.5617,-39.0765],[-68.6632,-39.215],[-68.8024,-39.2849],[-68.824,-39.3749],[-68.9999,-39.5152],[-69.1128,-39.5147],[-69.4219,-39.7681],[-69.8659,-39.9109],[-70.0054,-40.0474],[-69.9503,-40.179],[-70.0588,-40.249],[-70.0627,-40.3746],[-70.1706,-40.483],[-70.6539,-40.5913],[-70.8554,-40.5934],[-71.1208,-40.7582],[-71.032,-40.9331],[-71.2405,-41.0951],[-71.4564,-41.0417],[-71.8611,-41.031],[-71.8394,-41.1504],[-71.9112,-41.3567],[-71.828,-41.481],[-71.8856,-41.606],[-71.7842,-41.735],[-71.7739,-42],[-65.0693,-42],[-65.0159,-41.8322],[-65.0003,-41.4861],[-65.138,-41.2296],[-65.1667,-40.974],[-65.1289,-40.8568],[-65.0069,-40.7612],[-64.8753,-40.8289],[-64.5412,-40.8649],[-64.2062,-41.0098],[-63.9585,-41.0731],[-63.7886,-41.159],[-63.1165,-41.1555],[-62.7897,-41.0242],[-62.9576,-40.8181],[-63.1921,-40.7167],[-63.3793,-40.7104],[-63.3833,-39.3285],[-63.512,-39.3127],[-63.7882,-39.1092],[-63.8979,-39.1069],[-64.064,-38.9917],[-64.3486,-38.8835],[-64.8073,-38.816],[-65.1134,-38.7997],[-65.3908,-38.8307],[-65.5232,-38.7792],[-65.6911,-38.8348],[-66.0846,-38.7253],[-66.4418,-38.7456],[-66.6071,-38.6791],[-66.6099,-38.558],[-67.153,-38.3568],[-67.2611,-38.2171],[-67.5479,-38.2563],[-67.6565,-38.2018],[-67.7303,-38.0758],[-67.8959,-38.0173],[-67.7208,-37.8106],[-67.7856,-37.6523],[-68.1525,-37.5803]]]}},{"type":"Feature","properties":{"nombre":"Corrientes"},"geometry":{"type":"MultiPolygon","coordinates":[[[[-56.0289,-27.3829],[-56.1519,-27.3287],[-56.2872,-27.4109],[-56.3562,-27.5859],[-56.487,-27.5637],[-56.6035,-27.4314],[-56.6779,-27.5633],[-56.8451,-27.6064],[-56.9696,-27.4979],[-57.2254,-27.4704],[-57.3265,-27.4098],[-57.5075,-27.4442],[-57.697,-27.3269],[-58.0099,-27.2594],[-58.6165,-27.3186],[-58.6688,-27.3591],[-58.7456,-27.3822],[-58.7683,-27.3763],[-58.7935,-27.3932],[-58.8819,-27.4997],[-58.871,-27.5713],[-58.8097,-27.7834],[-58.8293,-27.9619],[-58.8577,-28.0116],[-58.8597,-28.0503],[-58.953,-28.1371],[-59.0624,-28.1281],[-59.1079,-28.2228],[-59.0786,-28.6675],[-59.2575,-29.0896],[-59.4078,-29.2214],[-59.5006,-29.2435],[-59.58,-29.4598],[-59.6175,-29.7758],[-59.6597,-29.8432],[-59.5664,-30.0081],[-59.6935,-30.3131],[-59.6717,-30.3387],[-59.6368,-30.3578],[-59.5878,-30.4348],[-59.5577,-30.3326],[-59.4196,-30.3157],[-59.2297,-30.3642],[-59.0643,-30.2308],[-58.8789,-30.2467],[-58.63,-30.1769],[-58.4966,-30.2077],[-58.4515,-30.2249],[-58.2074,-30.2881],[-58.0726,-30.4252],[-58.037,-30.5679],[-57.9802,-30.6294],[-57.8437,-30.7217],[-57.8896,-30.5107],[-57.6429,-30.3419],[-57.6451,-30.1824],[-57.4742,-30.1198],[-57.3368,-29.9904],[-57.3278,-29.8833],[-57.2299,-29.7792],[-57.1195,-29.7637],[-56.7039,-29.3622],[-56.5915,-29.1243],[-56.4195,-29.079],[-56.4099,-28.9776],[-56.3019,-28.9011],[-56.2944,-28.7977],[-56.1855,-28.77],[-56.0076,-28.605],[-56.0086,-28.506],[-55.8824,-28.4777],[-55.8783,-28.3612],[-55.7825,-28.2539],[-55.6323,-28.1768],[-55.7167,-28.0613],[-55.8244,-27.9484],[-55.8255,-27.7917],[-55.9789,-27.5402],[-56.0289,-27.3829]]],[[[-56.9148,-27.4235],[-56.9701,-27.4927],[-56.8404,-27.5962],[-56.764,-27.5026],[-56.9148,-27.4235]]]]}},{"type":"Feature","properties":{"nombre":"Misiones"},"geometry":{"type":"Polygon","coordinates":[[[-55.7167,-28.0613],[-55.5548,-28.1628],[-55.376,-28.035],[-55.3844,-27.983],[-55.1972,-27.8571],[-55.025,-27.8326],[-54.9028,-27.721],[-54.8129,-27.5326],[-54.6837,-27.575],[-54.4463,-27.4742],[-54.2816,-27.4472],[-54.1897,-27.2757],[-54.0845,-27.2998],[-54.0084,-27.1993],[-53.8367,-27.1697],[-53.6956,-26.8869],[-53.7435,-26.6815],[-53.7101,-26.388],[-53.6413,-26.2139],[-53.8281,-25.9636],[-53.8621,-25.659],[-54.1026,-25.4943],[-54.3824,-25.5963],[-54.5553,-25.5877],[-54.6552,-25.6704],[-54.5867,-25.8306],[-54.6797,-26.0036],[-54.618,-26.2142],[-54.7064,-26.4491],[-54.8005,-26.5361],[-54.8124,-26.6678],[-54.9422,-26.6824],[-54.9563,-26.7814],[-55.1416,-26.8663],[-55.1415,-26.9535],[-55.3757,-26.9662],[-55.4555,-27.1063],[-55.5613,-27.1013],[-55.5896,-27.3317],[-55.7871,-27.4402],[-55.8963,-27.3427],[-56.0289,-27.3829],[-55.9789,-27.5402],[-55.8255,-27.7917],[-55.8244,-27.9484],[-55.7167,-28.0613]]]}},{"type":"Feature","properties":{"nombre":"Salta"},"geometry":{"type":"Polygon","coordinates":[[[-62.3424,-24.3921],[-62.3423,-22.457],[-62.6366,-22.3053],[-62.8139,-22.105],[-62.8112,-21.9988],[-63.9315,-21.9994],[-64.0624,-22.2384],[-64.1155,-22.4056],[-64.2417,-22.5577],[-64.272,-22.7119],[-64.4339,-22.6313],[-64.4121,-22.5384],[-64.5657,-22.372],[-64.539,-22.282],[-64.9934,-22.0824],[-65.1866,-22.0853],[-65.2403,-22.2792],[-65.2627,-22.3383],[-65.3057,-22.4666],[-65.3502,-22.5399],[-65.3492,-22.6047],[-65.2717,-22.6482],[-65.2742,-22.7901],[-65.2182,-22.959],[-65.1338,-23.0019],[-65.0717,-23.1377],[-65.045,-23.1557],[-65.0386,-23.2269],[-64.9102,-23.3108],[-64.8684,-23.4474],[-64.845,-23.4972],[-64.6825,-23.4524],[-64.4959,-23.5671],[-64.3932,-23.6101],[-64.3543,-23.518],[-64.1571,-23.518],[-64.1618,-24.2211],[-64.2231,-24.3294],[-64.2738,-24.3933],[-64.3158,-24.4263],[-64.4217,-24.4022],[-64.6475,-24.6134],[-64.8427,-24.4671],[-64.9274,-24.5998],[-65.0797,-24.5622],[-65.1941,-24.4599],[-65.3173,-24.5023],[-65.6563,-24.3774],[-65.7209,-24.1093],[-65.8045,-24.033],[-65.9926,-23.98],[-66.0219,-23.8617],[-66.0112,-23.5088],[-66.1843,-23.4146],[-66.1829,-23.4384],[-66.2836,-23.5747],[-66.3676,-23.6946],[-66.3623,-24.0874],[-66.5436,-24.2076],[-66.8374,-24.0707],[-66.9928,-23.8899],[-67.213,-23.6949],[-67.3226,-24.0342],[-68.2599,-24.4023],[-68.3878,-24.4841],[-68.5688,-24.7941],[-68.4326,-24.9059],[-68.3442,-25.1108],[-68.5072,-25.1683],[-67.8646,-25.2384],[-66.8793,-25.2417],[-66.5582,-25.3007],[-66.5185,-25.4403],[-66.5639,-25.6218],[-66.6486,-25.712],[-66.8017,-25.6988],[-66.8736,-25.7662],[-66.8476,-25.7963],[-66.8466,-25.9701],[-66.7788,-26.0481],[-66.7573,-26.0501],[-66.6593,-26.1072],[-66.5842,-26.1598],[-66.5399,-26.3532],[-66.382,-26.4168],[-66.293,-26.2293],[-66.2329,-26.1521],[-66.1944,-26.1306],[-66.156,-26.1446],[-66.0998,-26.2205],[-66.0714,-26.2387],[-65.7194,-26.3528],[-65.7115,-26.3287],[-65.723,-26.3127],[-65.7228,-26.2798],[-65.6885,-26.1173],[-65.4246,-26.109],[-65.2979,-26.0817],[-65.2753,-26.1712],[-65.0407,-26.2299],[-64.9512,-26.3068],[-64.7322,-26.2416],[-64.5796,-26.2182],[-64.5642,-26.2269],[-64.4167,-26.1143],[-64.413,-26.0405],[-64.268,-25.7006],[-64.0255,-25.7539],[-64.0078,-25.6738],[-63.4755,-25.7099],[-62.3424,-24.3921]]]}},{"type":"Feature","properties":{"nombre":"Córdoba"},"geometry":{"type":"Polygon","coordinates":[[[-63.8739,-29.6308],[-63.9578,-29.6235],[-63.9808,-29.551],[-64.2755,-29.4987],[-64.9641,-29.5961],[-64.9379,-29.8475],[-65.1583,-30.0473],[-65.423,-30.1196],[-65.5252,-30.4908],[-65.7715,-31.0442],[-65.7698,-31.8886],[-65.628,-31.8986],[-65.2458,-32.089],[-65.212,-32.3267],[-64.9772,-32.3214],[-64.9298,-32.4233],[-64.9192,-32.4838],[-64.8832,-32.5726],[-64.9446,-32.7673],[-64.9631,-32.8633],[-65.0708,-33.1383],[-65.143,-33.1948],[-65.1092,-33.9506],[-65.1068,-35.0153],[-63.3857,-35.0022],[-63.3851,-34.3858],[-62.8839,-34.3865],[-61.9232,-33.1196],[-61.7877,-33.0062],[-61.7957,-32.774],[-62.0379,-32.2629],[-62.1968,-32.1148],[-62.1678,-31.986],[-62.2235,-31.8839],[-62.2417,-31.6997],[-62.1235,-31.6054],[-61.8422,-30.7443],[-62.1307,-30.4804],[-62.1738,-30.3453],[-62.5201,-30.3419],[-62.5936,-30.2596],[-62.5565,-30.0628],[-62.7913,-29.9606],[-62.8063,-29.8338],[-63.4596,-29.7569],[-63.4654,-29.6645],[-63.7484,-29.6533],[-63.7838,-29.5842],[-63.8419,-29.5808],[-63.8739,-29.6308]]]}},{"type":"Feature","properties":{"nombre":"Buenos Aires"},"geometry":{"type":"Polygon","coordinates":[[[-60.2007,-33.2922],[-60.2727,-33.2639],[-60.4574,-33.5824],[-60.5569,-33.6466],[-60.8182,-33.5403],[-60.934,-33.6547],[-61.7198,-34.3856],[-63.3851,-34.3858],[-63.3793,-40.7104],[-63.1921,-40.7167],[-62.9576,-40.8181],[-62.7897,-41.0242],[-62.7104,-41.0377],[-62.3125,-40.8711],[-62.1819,-40.5768],[-62.4189,-40.4637],[-62.4866,-40.331],[-62.3389,-40.1869],[-62.32,-39.8685],[-62.1152,-39.8488],[-62.1191,-39.6626],[-62.0092,-39.3675],[-62.2864,-39.2333],[-62.3542,-39.1011],[-62.2993,-39.025],[-62.372,-38.8437],[-62.295,-38.7853],[-62.1262,-38.8418],[-62.0734,-38.9251],[-61.8097,-38.993],[-61.1432,-39.0001],[-60.8528,-38.9798],[-59.1114,-38.7004],[-58.3298,-38.4827],[-57.8527,-38.2964],[-57.5449,-38.1006],[-57.4916,-37.8282],[-57.1255,-37.4928],[-56.9898,-37.2885],[-56.6661,-36.8806],[-56.7002,-36.4124],[-56.7401,-36.3144],[-57.0134,-36.3282],[-57.2792,-36.1376],[-57.3825,-35.9667],[-57.3647,-35.7448],[-57.1279,-35.4458],[-57.2233,-35.2728],[-57.5085,-35.0247],[-57.8737,-34.8262],[-58.1791,-34.7445],[-58.3431,-34.6302],[-58.3741,-34.6572],[-58.4238,-34.6622],[-58.5008,-34.5495],[-58.4369,-34.3009],[-58.3541,-34.2165],[-58.345,-34.0384],[-58.4632,-34.0019],[-58.655,-34.0353],[-58.7637,-33.9453],[-59.0555,-33.8324],[-59.2423,-33.8075],[-59.2354,-33.74],[-59.4678,-33.7043],[-59.6174,-33.6937],[-59.8095,-33.5517],[-59.8947,-33.5103],[-60.0448,-33.4475],[-60.2007,-33.2922]]]}},{"type":"Feature","properties":{"nombre":"La Pampa"},"geometry":{"type":"Polygon","coordinates":[[[-63.3833,-39.3285],[-63.3857,-35.0022],[-65.1068,-35.0153],[-65.1078,-35.9991],[-68.2964,-35.9976],[-68.2502,-36.1725],[-68.2543,-37.5719],[-68.1525,-37.5803],[-67.7856,-37.6523],[-67.7208,-37.8106],[-67.8959,-38.0173],[-67.7303,-38.0758],[-67.6565,-38.2018],[-67.5479,-38.2563],[-67.2611,-38.2171],[-67.153,-38.3568],[-66.6099,-38.558],[-66.6071,-38.6791],[-66.4418,-38.7456],[-66.0846,-38.7253],[-65.6911,-38.8348],[-65.5232,-38.7792],[-65.3908,-38.8307],[-65.1134,-38.7997],[-64.8073,-38.816],[-64.3486,-38.8835],[-64.064,-38.9917],[-63.8979,-39.1069],[-63.7882,-39.1092],[-63.512,-39.3127],[-63.3833,-39.3285]]]}},{"type":"Feature","properties":{"nombre":"Tierra del Fuego"},"geometry":{"type":"MultiPolygon","coordinates":[[[[-73.5477,-70.7358],[-74,-70.551],[-74,-70.8729],[-73.5477,-70.7358]]],[[[-72.7343,-77.5782],[-74,-77.4858],[-74,-78.0989],[-73.3545,-77.9567],[-72.7952,-77.7139],[-72.7343,-77.5782]]],[[[-71.9534,-69.6655],[-72.2737,-69.5952],[-72.4023,-69.4602],[-72.6929,-69.4112],[-72.968,-69.4847],[-72.7691,-69.6625],[-72.5231,-69.6936],[-71.9534,-69.6655]]],[[[-71.3618,-70.3475],[-71.4753,-70.2659],[-71.8219,-70.295],[-71.6094,-70.4565],[-71.3618,-70.3475]]],[[[-68.1237,-71.5902],[-68.2488,-71.4503],[-68.2168,-71.178],[-68.3337,-70.7911],[-68.5963,-70.5593],[-68.7317,-70.347],[-69.0757,-70.1508],[-69.3328,-69.8211],[-69.3238,-69.6299],[-69.487,-69.567],[-69.749,-69.2781],[-70.0281,-69.1985],[-70.107,-68.8859],[-70.4417,-68.7809],[-71.0276,-68.8684],[-71.5956,-68.856],[-72.0108,-68.9576],[-72.2129,-69.0775],[-72.1059,-69.2545],[-71.6734,-69.3904],[-71.7377,-69.658],[-71.9352,-69.9348],[-71.6769,-70.0783],[-70.9782,-70.2358],[-70.7421,-70.1211],[-70.506,-70.2234],[-69.8898,-70.3022],[-70.9772,-70.4509],[-71.2722,-70.6789],[-70.8205,-70.8274],[-70.3703,-70.8227],[-69.9342,-70.9493],[-71.1741,-70.999],[-71.6317,-71.152],[-72.3869,-71.0491],[-72.7659,-71.0664],[-73.1266,-71.1444],[-72.7273,-71.2675],[-72.2241,-71.3128],[-72.2469,-71.3766],[-72.9476,-71.3554],[-73.3567,-71.3039],[-74,-71.4196],[-74,-72.1631],[-73.5053,-72.006],[-73.7601,-71.8988],[-73.4789,-71.831],[-73.1784,-71.9254],[-72.7106,-71.8634],[-72.6712,-71.7221],[-72.1821,-71.6614],[-71.8199,-71.8217],[-71.3791,-71.8345],[-70.7422,-71.9624],[-70.9518,-72.0251],[-71.4862,-72.0637],[-72.0441,-72.1552],[-71.6479,-72.2525],[-71.1262,-72.2748],[-70.4213,-72.1304],[-70.2143,-72.289],[-70.9273,-72.3973],[-71.8545,-72.357],[-72.7019,-72.2717],[-73.1623,-72.4493],[-72.8546,-72.5767],[-72.3712,-72.6709],[-71.4187,-72.6304],[-70.6964,-72.6695],[-69.7825,-72.6161],[-69.2091,-72.5348],[-68.7533,-72.223],[-68.465,-72.2464],[-68.3937,-71.9768],[-68.2097,-71.8674],[-68.1237,-71.5902]]],[[[-67.6572,-66.6894],[-67.8568,-66.6218],[-68.2756,-66.7603],[-68.4628,-66.8695],[-68.8922,-67.3171],[-69.1985,-67.5423],[-68.9023,-67.7666],[-68.5516,-67.7429],[-68.1284,-67.5724],[-67.9421,-67.4018],[-67.9832,-67.3027],[-67.8105,-67.0718],[-68.0214,-66.9413],[-67.9501,-66.8262],[-67.6572,-66.6894]]],[[[-67.1822,-78.4939],[-67.9878,-78.4755],[-69.4882,-78.7011],[-71.18,-79.0481],[-71.4665,-79.1626],[-71.8177,-79.4398],[-71.4837,-79.6332],[-70.7926,-79.7024],[-69.7621,-79.5237],[-69.8295,-79.4435],[-68.7189,-79.0193],[-67.6335,-78.7366],[-67.1822,-78.4939]]],[[[-67.1283,-67.6164],[-67.4463,-67.5841],[-67.754,-67.6598],[-67.7004,-67.7675],[-67.4414,-67.7876],[-67.1283,-67.6164]]],[[[-65.6344,-65.5354],[-65.9645,-65.5499],[-66.1992,-65.8321],[-65.8523,-65.8274],[-65.9079,-65.711],[-65.6606,-65.6755],[-65.6344,-65.5354]]],[[[-65.1227,-54.6544],[-65.2349,-54.6188],[-65.8028,-54.6519],[-66.465,-54.4787],[-66.734,-54.2603],[-67.3297,-54.0414],[-67.5352,-53.9271],[-67.5457,-53.8404],[-67.9113,-53.6527],[-68.0829,-53.3897],[-68.5484,-53.2475],[-68.5382,-53.1444],[-68.2877,-52.9514],[-68.6067,-52.659],[-68.609,-54.4201],[-68.5964,-54.873],[-68.2485,-54.795],[-67.7035,-54.886],[-67.5058,-54.8535],[-66.7645,-54.9607],[-66.5216,-55.0567],[-66.3341,-54.9965],[-65.9714,-54.9684],[-65.7391,-54.9099],[-65.6368,-54.97],[-65.2323,-54.8293],[-65.1227,-54.6544]]],[[[-63.7961,-54.7259],[-64.2787,-54.729],[-64.7249,-54.8116],[-64.6061,-54.9108],[-64.2347,-54.782],[-64.1723,-54.8233],[-63.8457,-54.7892],[-63.7961,-54.7259]]],[[[-62.8783,-64.5808],[-63.3228,-64.448],[-63.1721,-64.2761],[-63.4389,-64.2504],[-63.6714,-64.3171],[-63.7083,-64.4442],[-63.9406,-64.4581],[-64.1912,-64.6442],[-64.065,-64.759],[-63.7841,-64.7884],[-63.3193,-64.7395],[-63.1855,-64.6506],[-62.8783,-64.5808]]],[[[-62.0294,-64.1509],[-62.4646,-64.0084],[-62.6157,-64.1403],[-62.4642,-64.2332],[-62.687,-64.4051],[-62.603,-64.5301],[-62.2303,-64.3932],[-62.0294,-64.1509]]],[[[-61.7933,-69.5164],[-61.8307,-69.3725],[-62.1133,-69.2187],[-62.5802,-69.1887],[-62.4836,-69.3355],[-62.2031,-69.5068],[-61.7933,-69.5164]]],[[[-60.8572,-51.788],[-61.0293,-51.779],[-61.1338,-51.8596],[-60.8968,-51.9518],[-60.8572,-51.788]]],[[[-60.4311,-70.5689],[-60.9508,-70.5403],[-60.7981,-70.7221],[-60.4311,-70.5689]]],[[[-59.8054,-62.6107],[-59.9947,-62.6315],[-60.1367,-62.4659],[-60.3296,-62.5654],[-60.3123,-62.7642],[-59.8054,-62.6107]]],[[[-59.7343,-80.2206],[-59.9639,-80.0955],[-59.8844,-79.8372],[-60.5258,-79.7418],[-61.2215,-79.8756],[-61.4216,-80.1488],[-61.3217,-80.2986],[-62.0983,-80.4047],[-63.437,-80.4676],[-65.7329,-80.3982],[-66.6306,-80.2383],[-66.7505,-80.3966],[-65.9188,-80.5635],[-64.5298,-80.7303],[-63.6159,-80.5931],[-63.1287,-80.6049],[-62.9732,-80.7714],[-62.3077,-80.886],[-60.8272,-80.9592],[-60.0443,-80.7704],[-59.7343,-80.2206]]],[[[-59.1901,-51.3989],[-59.3583,-51.3594],[-59.4675,-51.4646],[-59.7334,-51.4606],[-59.9596,-51.3953],[-60.1065,-51.5047],[-60.4551,-51.4377],[-60.495,-51.5401],[-60.3677,-51.6715],[-60.1817,-51.7459],[-60.45,-51.876],[-60.5703,-51.9843],[-60.846,-51.954],[-60.8596,-52.042],[-60.6164,-52.2588],[-60.2669,-52.0909],[-60.2391,-52.0168],[-59.8588,-51.9636],[-59.5435,-51.6467],[-59.4403,-51.6341],[-59.1901,-51.3989]]],[[[-58.4653,-51.31],[-58.6722,-51.3334],[-58.9046,-51.2755],[-59.1789,-51.5844],[-59.2146,-51.7173],[-59.6103,-51.9181],[-59.5505,-52.0677],[-59.6913,-52.1368],[-59.5938,-52.2482],[-59.3389,-52.2875],[-59.105,-52.242],[-58.8573,-52.0533],[-58.7362,-52.0501],[-58.5607,-51.9074],[-58.3026,-51.8854],[-58.0356,-51.7588],[-57.8817,-51.7473],[-57.7641,-51.5404],[-57.8514,-51.4131],[-58.2823,-51.3909],[-58.4653,-51.31]]],[[[-57.577,-62.0219],[-58.0509,-61.9301],[-58.3576,-61.9315],[-58.885,-62.1168],[-58.6155,-62.2619],[-58.2296,-62.1875],[-58.0454,-62.0775],[-57.577,-62.0219]]],[[[-57.065,-64.1595],[-57.1355,-64.0855],[-57.883,-63.9764],[-57.7691,-63.9001],[-57.9665,-63.8065],[-58.2883,-63.9214],[-58.4573,-64.091],[-58.2189,-64.1042],[-58.1587,-64.2722],[-58.3106,-64.3264],[-57.9175,-64.4392],[-57.5331,-64.3539],[-57.065,-64.1595]]],[[[-56.9058,-64.329],[-57.2675,-64.4392],[-57.0115,-64.4852],[-56.9058,-64.329]]],[[[-56.7646,-63.5472],[-57.0064,-63.4738],[-57.0488,-63.26],[-57.2178,-63.2214],[-57.8758,-63.3133],[-58.1568,-63.4734],[-58.3968,-63.4562],[-58.7899,-63.5149],[-58.9153,-63.6582],[-59.3519,-63.7321],[-59.3837,-63.8685],[-59.5555,-63.8969],[-59.8269,-63.8347],[-59.9592,-63.9566],[-60.2253,-63.9108],[-60.7387,-64.0603],[-60.9389,-64.3025],[-61.5529,-64.433],[-61.617,-64.5349],[-61.9499,-64.6024],[-61.932,-64.6758],[-62.3378,-64.7568],[-62.8204,-64.8046],[-63.2148,-64.9893],[-63.1751,-65.1431],[-63.6523,-65.086],[-63.8218,-65.0273],[-64.0935,-65.1758],[-64.1002,-65.409],[-63.9936,-65.5188],[-64.4783,-65.6296],[-64.3679,-65.8056],[-64.7008,-65.8321],[-64.4477,-65.9595],[-64.7098,-66.0139],[-64.9375,-65.9233],[-65.2991,-65.9655],[-65.2913,-66.149],[-65.6359,-66.1129],[-65.7024,-66.2609],[-65.732,-66.703],[-66.1305,-66.5868],[-66.5722,-66.6697],[-66.4324,-66.8495],[-66.6017,-66.9913],[-66.4424,-67.1748],[-66.8861,-67.1708],[-66.9619,-66.9272],[-67.2469,-67.0293],[-67.5097,-67.049],[-67.5931,-67.1541],[-67.5425,-67.3459],[-67.6492,-67.4522],[-67.3642,-67.5353],[-66.9652,-67.4738],[-66.726,-67.5357],[-67.0994,-67.7738],[-66.8381,-67.9133],[-67.2933,-67.9598],[-66.7809,-68.3162],[-67.0357,-68.6086],[-67.003,-68.7886],[-67.4898,-68.8313],[-67.2468,-68.9499],[-66.8849,-68.9674],[-66.8961,-69.2222],[-67.2268,-69.2963],[-67.4616,-69.4567],[-68.1715,-69.3194],[-68.3075,-69.4038],[-68.8218,-69.3965],[-68.5022,-69.638],[-68.3322,-69.6955],[-68.4891,-70.0491],[-67.9582,-70.3042],[-67.702,-70.6076],[-67.7985,-70.6645],[-67.5434,-70.9593],[-67.4638,-71.1694],[-67.6419,-71.3809],[-67.5299,-71.6165],[-67.1348,-71.7443],[-66.7775,-71.9565],[-66.7514,-72.1328],[-66.9637,-72.3396],[-67.2072,-72.4478],[-67.2116,-72.5935],[-67.7812,-72.848],[-68.6633,-73.0934],[-69.3002,-73.1728],[-70.2283,-73.2296],[-70.3882,-73.2859],[-71.0663,-73.2616],[-71.4569,-73.3603],[-72.3038,-73.3871],[-72.4287,-73.4513],[-72.9877,-73.4507],[-74,-73.6426],[-74,-76.6913],[-72.8627,-76.6751],[-71.618,-76.7656],[-70.1725,-76.6684],[-70.0024,-76.5256],[-70.1303,-76.4122],[-69.4737,-76.3378],[-68.5578,-76.2989],[-67.4506,-76.1298],[-66.2657,-76.0133],[-65.0172,-75.7933],[-64.2621,-75.6824],[-63.5892,-75.5284],[-63.0782,-75.3624],[-64.4426,-75.3211],[-64.1683,-75.2141],[-63.0354,-75.142],[-63.3118,-75.0099],[-63.7805,-75.0421],[-64.0389,-74.9768],[-63.0528,-74.9016],[-63.2954,-74.7166],[-63.0704,-74.6576],[-62.5948,-74.7934],[-62.5634,-74.9747],[-62.0731,-74.9389],[-61.7904,-74.7713],[-62.1101,-74.4629],[-61.3397,-74.5492],[-61.0034,-74.5043],[-60.7502,-74.3649],[-60.7831,-74.2417],[-61.3851,-74.3369],[-61.0344,-74.0864],[-61.8324,-73.9189],[-61.4146,-73.8701],[-60.9828,-73.9599],[-60.7296,-73.6961],[-60.895,-73.5517],[-61.7783,-73.4465],[-61.7276,-73.3087],[-62.0332,-73.1592],[-61.2772,-73.2021],[-61.055,-73.351],[-60.3658,-73.3275],[-59.9774,-73.2406],[-60.2408,-73.0275],[-60.5348,-72.9809],[-60.5264,-72.6578],[-61.0216,-72.6939],[-61.2477,-72.6162],[-61.0359,-72.4734],[-60.6404,-72.4308],[-60.6565,-72.037],[-61.3947,-72.0648],[-62.4139,-71.9649],[-61.6183,-71.8556],[-61.0295,-71.8523],[-60.7661,-71.756],[-61.1579,-71.5324],[-61.5877,-71.6908],[-61.7366,-71.6099],[-61.4644,-71.4549],[-61.1326,-71.4165],[-60.9806,-71.1508],[-61.3575,-71.0301],[-61.2435,-70.8975],[-61.4853,-70.835],[-61.7843,-70.9257],[-62.0058,-70.7949],[-61.6432,-70.6873],[-61.3979,-70.5134],[-61.9652,-70.5097],[-62.4362,-70.3999],[-62.4053,-70.227],[-61.9584,-70.2724],[-61.9996,-70.0756],[-62.3156,-69.9908],[-62.5149,-69.8694],[-62.3918,-69.5339],[-62.7706,-69.3461],[-63.0844,-69.3047],[-63.3035,-69.0905],[-63.8911,-69.006],[-63.4756,-68.9009],[-63.4051,-68.7691],[-63.8566,-68.6978],[-63.6643,-68.5429],[-63.9674,-68.4836],[-64.26,-68.5941],[-63.9997,-68.7473],[-64.1009,-68.8334],[-65.1602,-68.6263],[-65.3523,-68.5588],[-64.977,-68.4033],[-65.3889,-68.3787],[-65.4185,-68.3094],[-64.7942,-68.1689],[-64.9832,-68.0927],[-65.7613,-68.163],[-65.6128,-68.0437],[-65.6974,-67.8769],[-65.5996,-67.7581],[-65.3215,-67.6656],[-65.5964,-67.5555],[-65.3043,-67.3986],[-64.7599,-67.2688],[-64.6934,-67.1501],[-64.9792,-67.0334],[-64.685,-66.988],[-64.7478,-66.8413],[-64.1014,-66.9374],[-63.735,-66.8993],[-63.9248,-66.7013],[-63.7952,-66.5994],[-63.9102,-66.5056],[-63.7683,-66.2812],[-63.5519,-66.2054],[-63.1987,-66.2726],[-62.8957,-66.4784],[-62.7872,-66.6611],[-62.4683,-66.7008],[-62.5737,-66.3941],[-62.7576,-66.3223],[-62.2293,-66.1748],[-61.8772,-66.3391],[-61.7397,-66.2324],[-61.5023,-66.2264],[-61.046,-66.0891],[-60.5462,-66.0142],[-60.5758,-65.9399],[-61.2373,-65.9164],[-61.3171,-66.0895],[-61.6205,-66.0147],[-61.9181,-66.1319],[-62.3779,-65.9327],[-62.4168,-65.8557],[-62.0423,-65.6655],[-61.9359,-65.498],[-62.2199,-65.4543],[-62.0094,-65.2602],[-61.6022,-65.2397],[-61.7018,-65.0828],[-61.5312,-64.983],[-61.325,-65.0442],[-61.0016,-64.9539],[-60.6955,-64.7925],[-60.6915,-64.7273],[-60.3598,-64.6539],[-60.3258,-64.5525],[-59.9751,-64.4398],[-59.8015,-64.5593],[-59.5428,-64.5427],[-59.6496,-64.4038],[-59.0584,-64.4519],[-58.9081,-64.355],[-58.6469,-63.9511],[-58.3744,-63.8489],[-58.2764,-63.7287],[-57.8726,-63.6726],[-57.7238,-63.5581],[-57.3221,-63.484],[-57.1746,-63.6045],[-56.7646,-63.5472]]],[[[-56.0312,-63.0261],[-56.375,-62.9851],[-56.6273,-63.0429],[-56.3094,-63.1886],[-56.0312,-63.0261]]],[[[-55.7294,-63.4448],[-56.0005,-63.3924],[-56.1991,-63.4386],[-56.1548,-63.5404],[-55.9372,-63.5818],[-55.7294,-63.4448]]],[[[-55.0611,-63.3303],[-55.0493,-63.2308],[-55.5339,-63.1768],[-55.5852,-63.1225],[-56.1325,-63.1553],[-56.3525,-63.2224],[-56.5586,-63.3646],[-56.369,-63.4431],[-55.8395,-63.3237],[-55.3052,-63.3699],[-55.0611,-63.3303]]],[[[-54.6834,-61.124],[-54.9846,-61.1154],[-55.3661,-61.0543],[-55.4737,-61.1283],[-55.2174,-61.2809],[-55.0399,-61.1617],[-54.6834,-61.124]]],[[[-45.1528,-60.6817],[-45.4294,-60.5557],[-45.6929,-60.5144],[-45.7379,-60.6454],[-45.1528,-60.6817]]],[[[-42.9944,-79.4396],[-43.3361,-79.2371],[-43.1931,-79.1687],[-43.7484,-78.7967],[-45.1384,-78.8138],[-45.3637,-78.6821],[-44.9879,-78.6276],[-43.9697,-78.6042],[-43.7251,-78.3881],[-43.7644,-78.276],[-44.2822,-78.094],[-44.9405,-77.9426],[-46.1758,-77.7945],[-47.2056,-77.7698],[-47.6189,-77.7962],[-49.003,-78.0263],[-49.6679,-78.2831],[-50.2347,-78.672],[-50.1466,-78.801],[-50.4752,-79.1315],[-50.2288,-79.4443],[-50.5649,-79.6287],[-52.1829,-80.1372],[-53.4867,-80.2206],[-54.1946,-80.6091],[-54.277,-80.8447],[-52.6284,-80.8946],[-50.9918,-80.8597],[-49.7222,-80.7658],[-49.3726,-80.6293],[-47.9898,-80.6517],[-46.8544,-80.5965],[-45.4839,-80.4759],[-43.998,-80.266],[-43.4464,-80.1058],[-43.0546,-79.8799],[-42.9944,-79.4396]]],[[[-35.7915,-54.7658],[-36.2948,-54.2694],[-36.6236,-54.2365],[-36.6672,-54.1136],[-37.4345,-54.003],[-37.7478,-54.0576],[-37.6295,-54.1913],[-37.4181,-54.2512],[-37.2209,-54.239],[-37.0466,-54.3474],[-36.8536,-54.3549],[-36.8179,-54.4584],[-36.4646,-54.5318],[-36.2656,-54.7965],[-35.9766,-54.8138],[-35.7915,-54.7658]]],[[[-25.0396,-75.8574],[-25.9303,-75.9254],[-26.7093,-76.1503],[-27.2538,-76.1609],[-27.6759,-76.2538],[-28.8601,-76.3508],[-30.4069,-76.7],[-30.4905,-76.8093],[-31.7206,-76.9809],[-31.8779,-77.1368],[-32.6252,-77.1275],[-33.2248,-77.2774],[-33.7185,-77.3102],[-34.3785,-77.4772],[-34.7812,-77.678],[-34.6618,-77.7931],[-35.3529,-77.854],[-35.6527,-78.095],[-36.2402,-78.381],[-36.5344,-78.6301],[-36.2705,-78.8453],[-34.9687,-78.9791],[-34.1511,-79.1096],[-33.7226,-79.2216],[-32.6426,-79.2572],[-30.2651,-79.0432],[-29.7489,-79.351],[-30.7469,-79.5781],[-31.9929,-79.6315],[-31.7573,-79.7365],[-31.9806,-79.8483],[-30.7663,-79.95],[-30.1631,-80.046],[-28.7559,-79.9623],[-27.3652,-79.9683],[-26.2023,-80.0151],[-26.3193,-80.1186],[-27.998,-80.0875],[-29.795,-80.1629],[-30.1519,-80.2939],[-31.2339,-80.2928],[-31.1254,-80.4025],[-31.9534,-80.4255],[-33.4107,-80.6091],[-34.4971,-80.6622],[-35.778,-80.8004],[-37.3838,-81.0716],[-37.7599,-80.983],[-38.7772,-80.8966],[-39.5766,-80.993],[-40.2931,-81.1632],[-41.1093,-81.2199],[-41.7864,-81.4145],[-41.9202,-81.6112],[-43.1693,-81.8971],[-43.1268,-82.116],[-44.0578,-82.4],[-45.001,-82.4146],[-46.1912,-82.5477],[-46.674,-82.4168],[-45.9854,-82.1337],[-46.2787,-81.9731],[-47.1851,-82.0381],[-47.5449,-81.9304],[-48.9085,-81.8965],[-49.5123,-81.9559],[-53.2149,-82.1239],[-54.7209,-82.2935],[-55.9004,-82.4716],[-56.0612,-82.5678],[-57.7453,-82.9203],[-58.9142,-83.4019],[-59.5938,-83.4677],[-61.4506,-83.3849],[-60.9637,-83.0028],[-61.9633,-82.9695],[-62.8172,-82.5237],[-61.1353,-82.3496],[-60.4908,-82.2121],[-62.346,-82.2561],[-65.1055,-82.4055],[-65.2211,-82.2723],[-66.1154,-82.1902],[-65.276,-81.9116],[-64.0065,-81.9057],[-63.5248,-81.7759],[-62.0938,-81.6512],[-62.302,-81.5637],[-63.0952,-81.5402],[-65.2444,-81.529],[-66.4996,-81.3475],[-68.3893,-81.1163],[-69.9914,-80.9779],[-70.3999,-80.833],[-70.3838,-80.7017],[-70.7924,-80.6158],[-71.571,-80.723],[-72.5571,-80.7926],[-72.8084,-80.9654],[-74,-80.8288],[-74,-90],[-25,-90],[-25,-75.8523],[-25.0396,-75.8574]]]]}}]}